{
  "type": "FeatureCollection",
  "features": [
    {
      "type": "Feature",
      "properties": {},
      "geometry": {
        "type": "LineString",
        "coordinates": [
          [2.1701756, 41.3851607],
          [2.173157930374146, 41.381274532589295],
          [2.1716424822807316, 41.38081567315619],
          [2.1732410788536076, 41.38126446991716],
          [2.173458337783814, 41.381367109099976],
          [2.173380553722382, 41.381668988110555],
          [2.1734395623207097, 41.38194067802193],
          [2.1735951304435734, 41.382164066654305],
          [2.173828482627869, 41.38237940451947],
          [2.1743139624595647, 41.38223047934296],
          [2.1744480729103093, 41.382047341158355],
          [2.1743166446685795, 41.381924577910674],
          [2.174482941627503, 41.381781689248605],
          [2.174603641033173, 41.3815683619294],
          [2.1735267341136937, 41.38132182712752],
          [2.1734744310379033, 41.38136509656854],
          [2.1731874346733098, 41.381230256820224],
          [2.174477577209473, 41.37979530307551],
          [2.1746049821376805, 41.379621214668205],
          [2.1750743687152867, 41.37994322754098],
          [2.1747310459613804, 41.3801807110131],
          [2.1751494705677037, 41.3805158027423],
          [2.175781130790711, 41.38000863621091],
          [2.1753801405429845, 41.37964939085822],
          [2.175102531909943, 41.37991706405457],
          [2.1746411919593815, 41.37957391889323],
          [2.1750462055206303, 41.379030518159865],
          [2.1755933761596684, 41.378603844772364],
          [2.176430225372315, 41.3773731178813],
          [2.177578210830689, 41.37592298378493],
          [2.1789622306823735, 41.37544798487945],
          [2.1806037425994877, 41.37755727555352]
        ]
      }
    }
  ]
}
