{
  "type": "FeatureCollection",
  "features": [
    {
      "type": "Feature",
      "properties": {},
      "geometry": {
        "type": "LineString",
        "coordinates": [
          [2.1701756, 41.3851607],
          [2.1714895963668828, 41.383262886053366],
          [2.17231052835583, 41.38228449067116],
          [2.1721467375755314, 41.38219727300709],
          [2.172259390354157, 41.382060422474346],
          [2.172085046768189, 41.3819728782325],
          [2.172103822231293, 41.38195476561601],
          [2.172283530235291, 41.382046334903166],
          [2.172974199056626, 41.38126245738257],
          [2.1730117499828343, 41.38122623174881],
          [2.172329127788544, 41.380959570212845],
          [2.171457409858704, 41.380763346874815],
          [2.1708270907402043, 41.380564104110434],
          [2.1721172332763676, 41.379115047461035],
          [2.1725973486900334, 41.37966247265659],
          [2.1728736162185673, 41.38006700081474],
          [2.1732759475708012, 41.381022965318564],
          [2.173101603984833, 41.38123629442687],
          [2.1734569966793065, 41.381386228145544],
          [2.1733966469764714, 41.381551255463116],
          [2.173397988080979, 41.38166295054408],
          [2.173410058021546, 41.381780682989294],
          [2.1734395623207097, 41.38194067802193],
          [2.1736072003841405, 41.382162054147514],
          [2.173804342746735, 41.38243676074645],
          [2.1741235256195073, 41.382335129502614],
          [2.1743139624595647, 41.38223047934296],
          [2.174414545297623, 41.38208356633467],
          [2.1743729710578923, 41.381959796898876],
          [2.1743166446685795, 41.381924577910674],
          [2.174482941627503, 41.381781689248605],
          [2.1745955944061284, 41.38158144334175],
          [2.1735267341136937, 41.38132182712752],
          [2.173467725515366, 41.38137616549069],
          [2.17318207025528, 41.381244344568195],
          [2.1745687723159794, 41.379614170618794],
          [2.1750743687152867, 41.37994322754098],
          [2.1747310459613804, 41.3801807110131],
          [2.1751494705677037, 41.3805158027423],
          [2.175781130790711, 41.38000863621091],
          [2.1753801405429845, 41.37964939085822],
          [2.175102531909943, 41.37991706405457],
          [2.174603641033173, 41.37958297553365],
          [2.174458801746369, 41.37952762937804],
          [2.174555361270905, 41.3794209621089],
          [2.174026966094971, 41.37890976182476],
          [2.1740913391113286, 41.37888359792261],
          [2.1746224164962773, 41.37939077322737],
          [2.1749979257583623, 41.37894397614247],
          [2.1751454472541814, 41.37900435430629],
          [2.175432443618775, 41.37875680347843],
          [2.1758401393890385, 41.37812081491782],
          [2.1760869026184086, 41.37767602175417],
          [2.176376581192017, 41.37723122554869],
          [2.176872789859772, 41.37664553902762],
          [2.1775084733963017, 41.37610613921593],
          [2.1778142452239995, 41.376218849994004],
          [2.1779081225395207, 41.37624904034785],
          [2.1780073642730717, 41.37637382699501],
          [2.1782863140106206, 41.3762530657273],
          [2.1791312098503117, 41.375653281442176],
          [2.1806037425994877, 41.37755727555352]
        ]
      }
    }
  ]
}
