{
  "type": "FeatureCollection",
  "metadata": {
    "schemas": [
      {
        "id": "default",
        "name": "Default",
        "fields": [
          {
            "key": "name",
            "label": "Name",
            "type": "text",
            "required": true
          },
          {
            "key": "description",
            "label": "Description",
            "type": "textarea",
            "required": false
          },
          {
            "key": "imageUrl",
            "label": "Image URL",
            "type": "url",
            "required": false
          }
        ]
      },
      {
        "id": "boundaries",
        "name": "Boundaries",
        "fields": [
          {
            "key": "name",
            "label": "Name",
            "type": "text",
            "required": true
          }
        ]
      }
    ],
    "groups": []
  },
  "features": [
    {
      "type": "Feature",
      "id": "8f11346d-f314-4d5f-a84c-1b4c3a79474d",
      "schemaId": "default",
      "_drawType": "route",
      "geometry": {
        "type": "LineString",
        "coordinates": [
          [
            -73.957725,
            40.800462
          ],
          [
            -73.957659,
            40.800436
          ],
          [
            -73.955908,
            40.799697
          ],
          [
            -73.955479,
            40.799516
          ],
          [
            -73.955363,
            40.799467
          ],
          [
            -73.955221,
            40.799407
          ],
          [
            -73.955101,
            40.799356
          ],
          [
            -73.95479,
            40.799229
          ],
          [
            -73.952628,
            40.798319
          ],
          [
            -73.95253,
            40.798275
          ],
          [
            -73.952396,
            40.798219
          ],
          [
            -73.952304,
            40.79818
          ],
          [
            -73.950913,
            40.797595
          ],
          [
            -73.949739,
            40.797101
          ],
          [
            -73.949736,
            40.797099
          ],
          [
            -73.9497,
            40.797068
          ],
          [
            -73.949672,
            40.797025
          ],
          [
            -73.949656,
            40.796982
          ],
          [
            -73.949649,
            40.796946
          ],
          [
            -73.949654,
            40.796916
          ],
          [
            -73.949655,
            40.796873
          ],
          [
            -73.949649,
            40.796831
          ],
          [
            -73.949632,
            40.796787
          ],
          [
            -73.949617,
            40.796754
          ],
          [
            -73.949586,
            40.79672
          ],
          [
            -73.949551,
            40.796691
          ],
          [
            -73.949508,
            40.796664
          ],
          [
            -73.949456,
            40.796647
          ],
          [
            -73.949408,
            40.796636
          ],
          [
            -73.949561,
            40.79641
          ],
          [
            -73.949654,
            40.796273
          ],
          [
            -73.949693,
            40.796222
          ],
          [
            -73.949739,
            40.796161
          ],
          [
            -73.950113,
            40.795648
          ],
          [
            -73.950158,
            40.795585
          ],
          [
            -73.950198,
            40.795531
          ],
          [
            -73.950569,
            40.795018
          ],
          [
            -73.950608,
            40.794963
          ],
          [
            -73.950646,
            40.794912
          ],
          [
            -73.951039,
            40.794382
          ],
          [
            -73.951111,
            40.794285
          ],
          [
            -73.951179,
            40.794192
          ],
          [
            -73.951252,
            40.79409
          ],
          [
            -73.951345,
            40.793962
          ],
          [
            -73.951562,
            40.793663
          ],
          [
            -73.951602,
            40.793608
          ],
          [
            -73.951636,
            40.793561
          ],
          [
            -73.952015,
            40.793042
          ],
          [
            -73.952059,
            40.792982
          ],
          [
            -73.952097,
            40.79293
          ],
          [
            -73.952328,
            40.792612
          ],
          [
            -73.952479,
            40.792406
          ],
          [
            -73.952522,
            40.792347
          ],
          [
            -73.952555,
            40.792302
          ],
          [
            -73.952935,
            40.791781
          ],
          [
            -73.952979,
            40.79172
          ],
          [
            -73.953021,
            40.791662
          ],
          [
            -73.953043,
            40.791632
          ],
          [
            -73.953396,
            40.791148
          ],
          [
            -73.953441,
            40.791086
          ],
          [
            -73.953475,
            40.79104
          ],
          [
            -73.95389,
            40.790471
          ],
          [
            -73.954323,
            40.789877
          ],
          [
            -73.954342,
            40.789851
          ],
          [
            -73.954392,
            40.789782
          ],
          [
            -73.954525,
            40.7896
          ],
          [
            -73.954771,
            40.789263
          ],
          [
            -73.954814,
            40.789204
          ],
          [
            -73.954847,
            40.789158
          ],
          [
            -73.954971,
            40.788989
          ],
          [
            -73.955224,
            40.788641
          ],
          [
            -73.955265,
            40.788585
          ],
          [
            -73.955382,
            40.788636
          ],
          [
            -73.955414,
            40.78865
          ],
          [
            -73.95614,
            40.788962
          ],
          [
            -73.956552,
            40.789156
          ],
          [
            -73.956825,
            40.789269
          ],
          [
            -73.957089,
            40.789353
          ],
          [
            -73.957177,
            40.789389
          ],
          [
            -73.957639,
            40.789586
          ],
          [
            -73.95843,
            40.789923
          ],
          [
            -73.95851,
            40.789953
          ],
          [
            -73.958582,
            40.78998
          ],
          [
            -73.958669,
            40.790009
          ],
          [
            -73.958751,
            40.790034
          ],
          [
            -73.958841,
            40.790061
          ],
          [
            -73.958923,
            40.790082
          ],
          [
            -73.95901,
            40.790103
          ],
          [
            -73.959105,
            40.790123
          ],
          [
            -73.959226,
            40.790149
          ],
          [
            -73.959514,
            40.790202
          ],
          [
            -73.959603,
            40.790221
          ],
          [
            -73.959712,
            40.790244
          ],
          [
            -73.959811,
            40.790272
          ],
          [
            -73.959914,
            40.790303
          ],
          [
            -73.960016,
            40.790339
          ],
          [
            -73.960115,
            40.790377
          ],
          [
            -73.960208,
            40.790417
          ],
          [
            -73.960301,
            40.790462
          ],
          [
            -73.960389,
            40.790508
          ],
          [
            -73.960478,
            40.790557
          ],
          [
            -73.960562,
            40.790608
          ],
          [
            -73.960644,
            40.790661
          ],
          [
            -73.961044,
            40.790937
          ],
          [
            -73.961126,
            40.790988
          ],
          [
            -73.961215,
            40.791041
          ],
          [
            -73.961308,
            40.791094
          ],
          [
            -73.961425,
            40.791156
          ],
          [
            -73.961543,
            40.791216
          ],
          [
            -73.961684,
            40.791286
          ],
          [
            -73.961847,
            40.791362
          ],
          [
            -73.962004,
            40.791434
          ],
          [
            -73.962145,
            40.791492
          ],
          [
            -73.962372,
            40.791578
          ],
          [
            -73.962532,
            40.791634
          ],
          [
            -73.962694,
            40.791689
          ],
          [
            -73.962752,
            40.791709
          ],
          [
            -73.962918,
            40.791774
          ],
          [
            -73.963041,
            40.791807
          ],
          [
            -73.963254,
            40.791868
          ],
          [
            -73.963346,
            40.791898
          ],
          [
            -73.963429,
            40.791926
          ],
          [
            -73.963491,
            40.791958
          ],
          [
            -73.963558,
            40.792001
          ],
          [
            -73.96375,
            40.792128
          ],
          [
            -73.963832,
            40.79218
          ],
          [
            -73.963927,
            40.792235
          ],
          [
            -73.96406,
            40.792305
          ],
          [
            -73.964177,
            40.792377
          ],
          [
            -73.964261,
            40.792272
          ],
          [
            -73.96445,
            40.792013
          ],
          [
            -73.964633,
            40.791759
          ],
          [
            -73.964694,
            40.791676
          ],
          [
            -73.964761,
            40.791587
          ],
          [
            -73.964859,
            40.791452
          ],
          [
            -73.96515,
            40.791051
          ],
          [
            -73.965188,
            40.790999
          ],
          [
            -73.965226,
            40.790947
          ],
          [
            -73.96544,
            40.790654
          ],
          [
            -73.965607,
            40.790425
          ],
          [
            -73.965648,
            40.79037
          ],
          [
            -73.965684,
            40.790324
          ],
          [
            -73.966068,
            40.789795
          ],
          [
            -73.966104,
            40.789745
          ],
          [
            -73.96615,
            40.789684
          ],
          [
            -73.966348,
            40.789416
          ],
          [
            -73.966526,
            40.789174
          ],
          [
            -73.966563,
            40.789122
          ],
          [
            -73.966601,
            40.789067
          ],
          [
            -73.966874,
            40.788699
          ],
          [
            -73.966985,
            40.788549
          ],
          [
            -73.967021,
            40.7885
          ],
          [
            -73.967065,
            40.788438
          ],
          [
            -73.967251,
            40.788176
          ],
          [
            -73.967422,
            40.787937
          ],
          [
            -73.967468,
            40.787872
          ],
          [
            -73.967514,
            40.787808
          ],
          [
            -73.967896,
            40.787293
          ],
          [
            -73.96794,
            40.787235
          ],
          [
            -73.967979,
            40.787182
          ],
          [
            -73.968164,
            40.786923
          ],
          [
            -73.968349,
            40.786664
          ],
          [
            -73.968393,
            40.786605
          ],
          [
            -73.968431,
            40.786552
          ],
          [
            -73.968814,
            40.786031
          ],
          [
            -73.968854,
            40.785974
          ],
          [
            -73.968891,
            40.785923
          ],
          [
            -73.969271,
            40.785401
          ],
          [
            -73.969344,
            40.785297
          ],
          [
            -73.969268,
            40.785213
          ],
          [
            -73.969237,
            40.785199
          ],
          [
            -73.96905,
            40.78513
          ],
          [
            -73.968944,
            40.785091
          ],
          [
            -73.968838,
            40.785053
          ],
          [
            -73.968573,
            40.784985
          ],
          [
            -73.968387,
            40.784947
          ],
          [
            -73.968277,
            40.784946
          ],
          [
            -73.968108,
            40.784904
          ],
          [
            -73.968018,
            40.784879
          ],
          [
            -73.967925,
            40.78485
          ],
          [
            -73.967855,
            40.784824
          ],
          [
            -73.967778,
            40.784793
          ],
          [
            -73.967697,
            40.784755
          ],
          [
            -73.967614,
            40.784711
          ],
          [
            -73.967528,
            40.784666
          ],
          [
            -73.967349,
            40.784559
          ],
          [
            -73.967027,
            40.784369
          ],
          [
            -73.966943,
            40.784324
          ],
          [
            -73.966864,
            40.784283
          ],
          [
            -73.966778,
            40.784244
          ],
          [
            -73.96668,
            40.784201
          ],
          [
            -73.966573,
            40.78416
          ],
          [
            -73.966452,
            40.784115
          ],
          [
            -73.96632,
            40.784071
          ],
          [
            -73.966185,
            40.784031
          ],
          [
            -73.965538,
            40.783844
          ],
          [
            -73.965267,
            40.783767
          ],
          [
            -73.964936,
            40.783673
          ],
          [
            -73.964755,
            40.783621
          ],
          [
            -73.964645,
            40.783585
          ],
          [
            -73.964557,
            40.783555
          ],
          [
            -73.964486,
            40.783528
          ],
          [
            -73.964372,
            40.783484
          ],
          [
            -73.964313,
            40.783458
          ],
          [
            -73.964259,
            40.783435
          ],
          [
            -73.964168,
            40.783393
          ],
          [
            -73.964082,
            40.783349
          ],
          [
            -73.963998,
            40.783303
          ],
          [
            -73.963921,
            40.783253
          ],
          [
            -73.963857,
            40.783202
          ],
          [
            -73.963804,
            40.783144
          ],
          [
            -73.963758,
            40.783087
          ],
          [
            -73.963716,
            40.783022
          ],
          [
            -73.963685,
            40.78297
          ],
          [
            -73.963659,
            40.782917
          ],
          [
            -73.963633,
            40.782856
          ],
          [
            -73.96361,
            40.782782
          ],
          [
            -73.963593,
            40.782722
          ],
          [
            -73.96353,
            40.782464
          ],
          [
            -73.96351,
            40.782395
          ],
          [
            -73.963492,
            40.782341
          ],
          [
            -73.963466,
            40.782274
          ],
          [
            -73.963436,
            40.782207
          ],
          [
            -73.963396,
            40.782133
          ],
          [
            -73.963354,
            40.782066
          ],
          [
            -73.963289,
            40.781976
          ],
          [
            -73.963227,
            40.7819
          ],
          [
            -73.963173,
            40.781842
          ],
          [
            -73.963114,
            40.781785
          ],
          [
            -73.963059,
            40.781739
          ],
          [
            -73.962996,
            40.781699
          ],
          [
            -73.962682,
            40.781495
          ],
          [
            -73.962448,
            40.781357
          ],
          [
            -73.962437,
            40.781305
          ],
          [
            -73.962409,
            40.781275
          ],
          [
            -73.962361,
            40.781229
          ],
          [
            -73.962324,
            40.781188
          ],
          [
            -73.962253,
            40.781092
          ],
          [
            -73.962218,
            40.781045
          ],
          [
            -73.962153,
            40.780967
          ],
          [
            -73.962089,
            40.780895
          ],
          [
            -73.962039,
            40.780841
          ],
          [
            -73.96195,
            40.780752
          ],
          [
            -73.961855,
            40.780661
          ],
          [
            -73.961756,
            40.780567
          ],
          [
            -73.961469,
            40.780314
          ],
          [
            -73.961416,
            40.780272
          ],
          [
            -73.961363,
            40.780232
          ],
          [
            -73.961417,
            40.780158
          ],
          [
            -73.961792,
            40.779642
          ],
          [
            -73.961833,
            40.779582
          ],
          [
            -73.961871,
            40.779529
          ],
          [
            -73.962255,
            40.779004
          ],
          [
            -73.962298,
            40.778947
          ],
          [
            -73.962336,
            40.778897
          ],
          [
            -73.962718,
            40.778374
          ],
          [
            -73.962763,
            40.778312
          ],
          [
            -73.962796,
            40.778267
          ],
          [
            -73.963176,
            40.77774
          ],
          [
            -73.963223,
            40.777674
          ],
          [
            -73.963244,
            40.777647
          ],
          [
            -73.963259,
            40.777625
          ],
          [
            -73.963346,
            40.777506
          ],
          [
            -73.963381,
            40.777458
          ],
          [
            -73.963477,
            40.777325
          ],
          [
            -73.963639,
            40.777102
          ],
          [
            -73.96372,
            40.776991
          ],
          [
            -73.963809,
            40.77703
          ],
          [
            -73.96385,
            40.777048
          ],
          [
            -73.963916,
            40.777081
          ],
          [
            -73.963992,
            40.777122
          ],
          [
            -73.964073,
            40.77717
          ],
          [
            -73.964159,
            40.777225
          ],
          [
            -73.964252,
            40.777287
          ],
          [
            -73.964365,
            40.77737
          ],
          [
            -73.964452,
            40.77744
          ],
          [
            -73.964539,
            40.777511
          ],
          [
            -73.964615,
            40.777571
          ],
          [
            -73.964843,
            40.777742
          ],
          [
            -73.964915,
            40.777791
          ],
          [
            -73.964999,
            40.777849
          ],
          [
            -73.965086,
            40.7779
          ],
          [
            -73.965167,
            40.777942
          ],
          [
            -73.96524,
            40.777975
          ],
          [
            -73.96532,
            40.778006
          ],
          [
            -73.965398,
            40.778033
          ],
          [
            -73.965479,
            40.778058
          ],
          [
            -73.965566,
            40.778079
          ],
          [
            -73.965647,
            40.778096
          ],
          [
            -73.965736,
            40.778111
          ],
          [
            -73.965825,
            40.778123
          ],
          [
            -73.96593,
            40.77813
          ],
          [
            -73.966019,
            40.778131
          ],
          [
            -73.966099,
            40.778134
          ],
          [
            -73.966185,
            40.77814
          ],
          [
            -73.966258,
            40.77815
          ],
          [
            -73.966325,
            40.778163
          ],
          [
            -73.966747,
            40.778258
          ],
          [
            -73.966968,
            40.778307
          ],
          [
            -73.96704,
            40.778325
          ],
          [
            -73.967126,
            40.778349
          ],
          [
            -73.967212,
            40.778378
          ],
          [
            -73.967292,
            40.778408
          ],
          [
            -73.967376,
            40.778444
          ],
          [
            -73.967987,
            40.778697
          ],
          [
            -73.968491,
            40.778907
          ],
          [
            -73.968591,
            40.778951
          ],
          [
            -73.968895,
            40.779079
          ],
          [
            -73.969338,
            40.779267
          ],
          [
            -73.969487,
            40.779331
          ],
          [
            -73.969574,
            40.779366
          ],
          [
            -73.969666,
            40.779398
          ],
          [
            -73.969759,
            40.779427
          ],
          [
            -73.970165,
            40.779545
          ],
          [
            -73.970289,
            40.779584
          ],
          [
            -73.970373,
            40.779613
          ],
          [
            -73.970468,
            40.779648
          ],
          [
            -73.970561,
            40.779686
          ],
          [
            -73.970645,
            40.779725
          ],
          [
            -73.970739,
            40.779772
          ],
          [
            -73.970851,
            40.779832
          ],
          [
            -73.970923,
            40.779878
          ],
          [
            -73.971281,
            40.780118
          ],
          [
            -73.971356,
            40.780174
          ],
          [
            -73.971429,
            40.78023
          ],
          [
            -73.971484,
            40.78028
          ],
          [
            -73.971521,
            40.780319
          ],
          [
            -73.971555,
            40.780355
          ],
          [
            -73.971586,
            40.780396
          ],
          [
            -73.971606,
            40.780433
          ],
          [
            -73.971623,
            40.780479
          ],
          [
            -73.971636,
            40.780523
          ],
          [
            -73.971646,
            40.780573
          ],
          [
            -73.971651,
            40.780629
          ],
          [
            -73.971658,
            40.78069
          ],
          [
            -73.971655,
            40.780748
          ],
          [
            -73.971651,
            40.780807
          ],
          [
            -73.971639,
            40.780861
          ],
          [
            -73.97162,
            40.780928
          ],
          [
            -73.971594,
            40.780999
          ],
          [
            -73.971436,
            40.781404
          ],
          [
            -73.971422,
            40.781444
          ],
          [
            -73.971411,
            40.781484
          ],
          [
            -73.971403,
            40.781523
          ],
          [
            -73.971395,
            40.781566
          ],
          [
            -73.971393,
            40.781605
          ],
          [
            -73.971394,
            40.781656
          ],
          [
            -73.9714,
            40.781693
          ],
          [
            -73.971412,
            40.781735
          ],
          [
            -73.971428,
            40.781771
          ],
          [
            -73.971441,
            40.781805
          ],
          [
            -73.971463,
            40.78184
          ],
          [
            -73.971496,
            40.78188
          ],
          [
            -73.971529,
            40.781917
          ],
          [
            -73.971566,
            40.781947
          ],
          [
            -73.971596,
            40.781969
          ],
          [
            -73.97164,
            40.781998
          ],
          [
            -73.971683,
            40.78202
          ],
          [
            -73.971722,
            40.782039
          ],
          [
            -73.971735,
            40.782022
          ],
          [
            -73.971813,
            40.78192
          ],
          [
            -73.972037,
            40.781618
          ],
          [
            -73.972252,
            40.781322
          ],
          [
            -73.972501,
            40.780983
          ],
          [
            -73.972698,
            40.780715
          ],
          [
            -73.973354,
            40.779815
          ],
          [
            -73.973536,
            40.779566
          ],
          [
            -73.973593,
            40.779487
          ],
          [
            -73.973649,
            40.77941
          ],
          [
            -73.973674,
            40.779376
          ],
          [
            -73.974037,
            40.778873
          ],
          [
            -73.97408,
            40.778813
          ],
          [
            -73.974118,
            40.778762
          ],
          [
            -73.97427,
            40.778551
          ],
          [
            -73.974502,
            40.77823
          ],
          [
            -73.974542,
            40.778174
          ],
          [
            -73.974582,
            40.778118
          ],
          [
            -73.974963,
            40.777592
          ],
          [
            -73.974999,
            40.777542
          ],
          [
            -73.975039,
            40.777487
          ],
          [
            -73.975442,
            40.776943
          ],
          [
            -73.975471,
            40.776903
          ],
          [
            -73.975507,
            40.776855
          ],
          [
            -73.97575,
            40.776518
          ],
          [
            -73.9759,
            40.776312
          ],
          [
            -73.975963,
            40.776227
          ],
          [
            -73.97603,
            40.776136
          ],
          [
            -73.97606,
            40.776096
          ],
          [
            -73.97642,
            40.7756
          ],
          [
            -73.976463,
            40.775543
          ],
          [
            -73.976506,
            40.775486
          ],
          [
            -73.976879,
            40.774975
          ],
          [
            -73.97692,
            40.77492
          ],
          [
            -73.976963,
            40.774862
          ],
          [
            -73.977108,
            40.774662
          ],
          [
            -73.977334,
            40.77435
          ],
          [
            -73.977374,
            40.774293
          ],
          [
            -73.977413,
            40.774236
          ],
          [
            -73.97779,
            40.773722
          ],
          [
            -73.977835,
            40.773659
          ],
          [
            -73.977873,
            40.773605
          ],
          [
            -73.977881,
            40.773593
          ],
          [
            -73.978244,
            40.773101
          ],
          [
            -73.978289,
            40.773039
          ],
          [
            -73.978328,
            40.772985
          ],
          [
            -73.978519,
            40.772725
          ],
          [
            -73.978683,
            40.772501
          ],
          [
            -73.978717,
            40.772452
          ],
          [
            -73.978739,
            40.772421
          ],
          [
            -73.978783,
            40.77236
          ],
          [
            -73.979156,
            40.771846
          ],
          [
            -73.979202,
            40.771785
          ],
          [
            -73.979054,
            40.77174
          ],
          [
            -73.979004,
            40.771727
          ],
          [
            -73.978949,
            40.771715
          ],
          [
            -73.978883,
            40.771706
          ],
          [
            -73.978815,
            40.771702
          ],
          [
            -73.978746,
            40.771702
          ],
          [
            -73.978679,
            40.771705
          ],
          [
            -73.978615,
            40.77171
          ],
          [
            -73.97855,
            40.771719
          ],
          [
            -73.978482,
            40.771733
          ],
          [
            -73.978258,
            40.77179
          ],
          [
            -73.978197,
            40.771802
          ],
          [
            -73.97813,
            40.77181
          ],
          [
            -73.978072,
            40.77181
          ],
          [
            -73.978013,
            40.771804
          ],
          [
            -73.977956,
            40.771794
          ],
          [
            -73.97789,
            40.771779
          ],
          [
            -73.977812,
            40.771757
          ],
          [
            -73.977665,
            40.771708
          ],
          [
            -73.977616,
            40.77168
          ],
          [
            -73.977174,
            40.771385
          ],
          [
            -73.976986,
            40.771273
          ],
          [
            -73.976811,
            40.771172
          ],
          [
            -73.976129,
            40.770786
          ],
          [
            -73.975952,
            40.770684
          ],
          [
            -73.975777,
            40.770581
          ],
          [
            -73.97561,
            40.770477
          ],
          [
            -73.975495,
            40.770401
          ],
          [
            -73.974741,
            40.769902
          ],
          [
            -73.974366,
            40.769654
          ],
          [
            -73.974273,
            40.769595
          ],
          [
            -73.974174,
            40.769537
          ],
          [
            -73.974092,
            40.769487
          ],
          [
            -73.974001,
            40.769438
          ],
          [
            -73.973831,
            40.769353
          ],
          [
            -73.973675,
            40.769282
          ],
          [
            -73.973563,
            40.769235
          ],
          [
            -73.973443,
            40.769189
          ],
          [
            -73.973357,
            40.769158
          ],
          [
            -73.97326,
            40.769126
          ],
          [
            -73.973149,
            40.769091
          ],
          [
            -73.972711,
            40.768972
          ],
          [
            -73.97236,
            40.768876
          ],
          [
            -73.972181,
            40.768815
          ],
          [
            -73.971896,
            40.768742
          ],
          [
            -73.971788,
            40.768712
          ],
          [
            -73.971665,
            40.768671
          ],
          [
            -73.971547,
            40.768627
          ],
          [
            -73.971462,
            40.768592
          ],
          [
            -73.971358,
            40.76855
          ],
          [
            -73.971229,
            40.76849
          ],
          [
            -73.971101,
            40.768422
          ],
          [
            -73.970993,
            40.768363
          ],
          [
            -73.970876,
            40.768303
          ],
          [
            -73.970779,
            40.768251
          ],
          [
            -73.970673,
            40.768202
          ],
          [
            -73.970559,
            40.76815
          ],
          [
            -73.970377,
            40.76807
          ],
          [
            -73.970339,
            40.768054
          ],
          [
            -73.970279,
            40.768028
          ],
          [
            -73.970324,
            40.767965
          ],
          [
            -73.970689,
            40.767449
          ],
          [
            -73.970728,
            40.767394
          ],
          [
            -73.970765,
            40.767344
          ],
          [
            -73.971144,
            40.766829
          ],
          [
            -73.971189,
            40.766767
          ],
          [
            -73.971225,
            40.766718
          ],
          [
            -73.971605,
            40.766207
          ],
          [
            -73.971652,
            40.766145
          ],
          [
            -73.971689,
            40.766096
          ],
          [
            -73.972071,
            40.765587
          ],
          [
            -73.972117,
            40.765526
          ],
          [
            -73.972157,
            40.765471
          ],
          [
            -73.972499,
            40.764999
          ],
          [
            -73.972556,
            40.764919
          ],
          [
            -73.972669,
            40.764975
          ],
          [
            -73.972873,
            40.765072
          ],
          [
            -73.972911,
            40.765087
          ],
          [
            -73.97296,
            40.765101
          ],
          [
            -73.972992,
            40.765106
          ],
          [
            -73.973026,
            40.765108
          ],
          [
            -73.973059,
            40.765108
          ],
          [
            -73.973093,
            40.765106
          ],
          [
            -73.973127,
            40.765101
          ],
          [
            -73.973167,
            40.76509
          ],
          [
            -73.973196,
            40.765079
          ],
          [
            -73.973232,
            40.765062
          ],
          [
            -73.973259,
            40.765046
          ],
          [
            -73.973288,
            40.765024
          ],
          [
            -73.973313,
            40.765
          ],
          [
            -73.973339,
            40.764969
          ],
          [
            -73.973563,
            40.764681
          ],
          [
            -73.973598,
            40.764638
          ],
          [
            -73.973628,
            40.764602
          ],
          [
            -73.973659,
            40.764569
          ],
          [
            -73.973704,
            40.764598
          ],
          [
            -73.973719,
            40.764607
          ]
        ]
      },
      "properties": {
        "_waypoints": [
          [
            -73.95777225494386,
            40.800393657666554
          ],
          [
            -73.94968807697298,
            40.796458612420125
          ],
          [
            -73.95539045333864,
            40.78868123740203
          ],
          [
            -73.9648747444153,
            40.791459266015764
          ],
          [
            -73.9637053012848,
            40.782962356500654
          ],
          [
            -73.96380186080934,
            40.7770398713323
          ],
          [
            -73.97173047065736,
            40.78201999363956
          ],
          [
            -73.97794246673585,
            40.773619375307554
          ],
          [
            -73.97547483444215,
            40.770418086484604
          ],
          [
            -73.97034645080568,
            40.768045458199325
          ],
          [
            -73.97375822067262,
            40.76456761707639
          ]
        ]
      },
      "bbox": [
        -73.979202,
        40.764569,
        -73.949408,
        40.800462
      ]
    }
  ]
}